{
  "type": "FeatureCollection",
  "features": [
    {
      "type": "Feature",
      "properties": {
        "norad_id": 30480,
        "name": "FENGYUN 1C DEB",
        "group": "fengyun-1c-debris",
        "lat": 56.52569093215439,
        "lon": -171.11708133067842,
        "alt_km": 682.1272685812537,
        "timestamp": "2025-12-07T03:52:32.773794+00:00",
        "meta_object_name": "FENGYUN 1C DEB",
        "meta_object_id": "1999-025AGS",
        "meta_epoch": "2025-12-06T14:30:24.689952",
        "meta_mean_motion": 14.33587158,
        "meta_eccentricity": 0.01660756,
        "meta_inclination": 98.2241,
        "meta_ra_of_asc_node": 355.7195,
        "meta_arg_of_pericenter": 163.9211,
        "meta_mean_anomaly": 326.625,
        "meta_ephemeris_type": 0,
        "meta_classification_type": "U",
        "meta_norad_cat_id": 30480,
        "meta_element_set_no": 999,
        "meta_rev_at_epoch": 98580,
        "meta_bstar": 0.00039050111,
        "meta_mean_motion_dot": 1.217e-05,
        "meta_mean_motion_ddot": 0,
        "tle_line1": "1 30480U 99025AGS 25340.60445243  .00001217  00000+0  39050-3 0  9992",
        "tle_line2": "2 30480  98.2241 355.7195 0166075 163.9211 326.6250 14.33587158985805"
      },
      "geometry": {
        "type": "Point",
        "coordinates": [
          -171.11708133067842,
          56.52569093215439
        ]
      }
    },
    {
      "type": "Feature",
      "properties": {
        "norad_id": 30481,
        "name": "FENGYUN 1C DEB",
        "group": "fengyun-1c-debris",
        "lat": 53.04461374873197,
        "lon": -170.14453056624043,
        "alt_km": 895.0231035703328,
        "timestamp": "2025-12-07T03:52:32.773808+00:00",
        "meta_object_name": "FENGYUN 1C DEB",
        "meta_object_id": "1999-025AGT",
        "meta_epoch": "2025-12-06T14:32:09.068064",
        "meta_mean_motion": 14.38996311,
        "meta_eccentricity": 0.02231446,
        "meta_inclination": 98.3369,
        "meta_ra_of_asc_node": 358.0753,
        "meta_arg_of_pericenter": 278.5255,
        "meta_mean_anomaly": 211.0626,
        "meta_ephemeris_type": 0,
        "meta_classification_type": "U",
        "meta_norad_cat_id": 30481,
        "meta_element_set_no": 999,
        "meta_rev_at_epoch": 98395,
        "meta_bstar": 0.0010171863,
        "meta_mean_motion_dot": 4.15e-05,
        "meta_mean_motion_ddot": 0,
        "tle_line1": "1 30481U 99025AGT 25340.60566051  .00004150  00000+0  10172-2 0  9996",
        "tle_line2": "2 30481  98.3369 358.0753 0223144 278.5255 211.0626 14.38996311983954"
      },
      "geometry": {
        "type": "Point",
        "coordinates": [
          -170.14453056624043,
          53.04461374873197
        ]
      }
    },
    {
      "type": "Feature",
      "properties": {
        "norad_id": 30486,
        "name": "FENGYUN 1C DEB",
        "group": "fengyun-1c-debris",
        "lat": -10.691436280694951,
        "lon": 15.339254209078213,
        "alt_km": 296.06327512265943,
        "timestamp": "2025-12-07T03:52:32.773818+00:00",
        "meta_object_name": "FENGYUN 1C DEB",
        "meta_object_id": "1999-025AGY",
        "meta_epoch": "2025-12-06T14:22:26.663808",
        "meta_mean_motion": 15.94808417,
        "meta_eccentricity": 0.00152998,
        "meta_inclination": 98.7994,
        "meta_ra_of_asc_node": 12.9295,
        "meta_arg_of_pericenter": 219.2254,
        "meta_mean_anomaly": 140.791,
        "meta_ephemeris_type": 0,
        "meta_classification_type": "U",
        "meta_norad_cat_id": 30486,
        "meta_element_set_no": 999,
        "meta_rev_at_epoch": 1656,
        "meta_bstar": 0.0030702646,
        "meta_mean_motion_dot": 0.01173656,
        "meta_mean_motion_ddot": 0.00065507125,
        "tle_line1": "1 30486U 99025AGY 25340.59891972  .01173656  65507-3  30703-2 0  9990",
        "tle_line2": "2 30486  98.7994  12.9295 0015299 219.2254 140.7910 15.94808417 16565"
      },
      "geometry": {
        "type": "Point",
        "coordinates": [
          15.339254209078213,
          -10.691436280694951
        ]
      }
    },
    {
      "type": "Feature",
      "properties": {
        "norad_id": 30489,
        "name": "FENGYUN 1C DEB",
        "group": "fengyun-1c-debris",
        "lat": 80.96100858027059,
        "lon": -73.15372999892377,
        "alt_km": 929.189173910373,
        "timestamp": "2025-12-07T03:52:32.773828+00:00",
        "meta_object_name": "FENGYUN 1C DEB",
        "meta_object_id": "1999-025AHB",
        "meta_epoch": "2025-12-06T12:55:27.687360",
        "meta_mean_motion": 14.15809097,
        "meta_eccentricity": 0.01389664,
        "meta_inclination": 98.4689,
        "meta_ra_of_asc_node": 355.7363,
        "meta_arg_of_pericenter": 283.0513,
        "meta_mean_anomaly": 229.9394,
        "meta_ephemeris_type": 0,
        "meta_classification_type": "U",
        "meta_norad_cat_id": 30489,
        "meta_element_set_no": 999,
        "meta_rev_at_epoch": 97299,
        "meta_bstar": 0.00051177866,
        "meta_mean_motion_dot": 1.062e-05,
        "meta_mean_motion_ddot": 0,
        "tle_line1": "1 30489U 99025AHB 25340.53851490  .00001062  00000+0  51178-3 0  9991",
        "tle_line2": "2 30489  98.4689 355.7363 0138966 283.0513 229.9394 14.15809097972995"
      },
      "geometry": {
        "type": "Point",
        "coordinates": [
          -73.15372999892377,
          80.96100858027059
        ]
      }
    },
    {
      "type": "Feature",
      "properties": {
        "norad_id": 30490,
        "name": "FENGYUN 1C DEB",
        "group": "fengyun-1c-debris",
        "lat": 16.636532271538975,
        "lon": -65.32264540906931,
        "alt_km": 454.1854290935362,
        "timestamp": "2025-12-07T03:52:32.773839+00:00",
        "meta_object_name": "FENGYUN 1C DEB",
        "meta_object_id": "1999-025AHC",
        "meta_epoch": "2025-12-06T14:34:56.509536",
        "meta_mean_motion": 15.26620649,
        "meta_eccentricity": 0.00503609,
        "meta_inclination": 98.3329,
        "meta_ra_of_asc_node": 111.5495,
        "meta_arg_of_pericenter": 142.3284,
        "meta_mean_anomaly": 218.1496,
        "meta_ephemeris_type": 0,
        "meta_classification_type": "U",
        "meta_norad_cat_id": 30490,
        "meta_element_set_no": 999,
        "meta_rev_at_epoch": 99402,
        "meta_bstar": 0.0059329928,
        "meta_mean_motion_dot": 0.0016441,
        "meta_mean_motion_ddot": 0,
        "tle_line1": "1 30490U 99025AHC 25340.60759849  .00164410  00000+0  59330-2 0  9990",
        "tle_line2": "2 30490  98.3329 111.5495 0050360 142.3284 218.1496 15.26620649994022"
      },
      "geometry": {
        "type": "Point",
        "coordinates": [
          -65.32264540906931,
          16.636532271538975
        ]
      }
    },
    {
      "type": "Feature",
      "properties": {
        "norad_id": 30492,
        "name": "FENGYUN 1C DEB",
        "group": "fengyun-1c-debris",
        "lat": -17.37735693494855,
        "lon": 171.90931875826232,
        "alt_km": 757.9732206028857,
        "timestamp": "2025-12-07T03:52:32.773849+00:00",
        "meta_object_name": "FENGYUN 1C DEB",
        "meta_object_id": "1999-025AHE",
        "meta_epoch": "2025-12-06T07:07:38.239104",
        "meta_mean_motion": 14.51595349,
        "meta_eccentricity": 0.00953457,
        "meta_inclination": 102.3254,
        "meta_ra_of_asc_node": 354.57,
        "meta_arg_of_pericenter": 80.4101,
        "meta_mean_anomaly": 280.7837,
        "meta_ephemeris_type": 0,
        "meta_classification_type": "U",
        "meta_norad_cat_id": 30492,
        "meta_element_set_no": 999,
        "meta_rev_at_epoch": 96801,
        "meta_bstar": 0.005816929,
        "meta_mean_motion_dot": 0.00024731,
        "meta_mean_motion_ddot": 0,
        "tle_line1": "1 30492U 99025AHE 25340.29697036  .00024731  00000+0  58169-2 0  9996",
        "tle_line2": "2 30492 102.3254 354.5700 0095345  80.4101 280.7837 14.51595349968016"
      },
      "geometry": {
        "type": "Point",
        "coordinates": [
          171.90931875826232,
          -17.37735693494855
        ]
      }
    },
    {
      "type": "Feature",
      "properties": {
        "norad_id": 30493,
        "name": "FENGYUN 1C DEB",
        "group": "fengyun-1c-debris",
        "lat": -77.73618820564992,
        "lon": -52.03530731581875,
        "alt_km": 809.2673093196763,
        "timestamp": "2025-12-07T03:52:32.773860+00:00",
        "meta_object_name": "FENGYUN 1C DEB",
        "meta_object_id": "1999-025AHF",
        "meta_epoch": "2025-12-06T11:15:16.255296",
        "meta_mean_motion": 13.92881141,
        "meta_eccentricity": 0.01817157,
        "meta_inclination": 98.5712,
        "meta_ra_of_asc_node": 171.2552,
        "meta_arg_of_pericenter": 234.1201,
        "meta_mean_anomaly": 155.2504,
        "meta_ephemeris_type": 0,
        "meta_classification_type": "U",
        "meta_norad_cat_id": 30493,
        "meta_element_set_no": 999,
        "meta_rev_at_epoch": 95008,
        "meta_bstar": 0.0058296853,
        "meta_mean_motion_dot": 8.625e-05,
        "meta_mean_motion_ddot": 0,
        "tle_line1": "1 30493U 99025AHF 25340.46893814  .00008625  00000+0  58297-2 0  9994",
        "tle_line2": "2 30493  98.5712 171.2552 0181715 234.1201 155.2504 13.92881141950084"
      },
      "geometry": {
        "type": "Point",
        "coordinates": [
          -52.03530731581875,
          -77.73618820564992
        ]
      }
    }
  ]
}